NOAA 1 [-]              
1 04793U 70106A   20112.21571841 -.00000033  00000-0  68819-4 0  9995
2 04793 101.6597 181.2868 0031874  51.7701 342.3083 12.53993871259391
NOAA 2 (ITOS-D) [-]     
1 06235U 72082A   20112.85908396 -.00000038  00000-0  48224-4 0  9995
2 06235 101.8459  82.7650 0004271 137.3679 275.7865 12.53123075173666
NOAA 3 [-]              
1 06920U 73086A   20112.36623076 -.00000050  00000-0 -35535-4 0  9992
2 06920 102.1010  84.0359 0006198 306.8275 223.0128 12.40341700103394
NOAA 4 [-]              
1 07529U 74089A   20111.50231576 -.00000050  00000-0 -31697-4 0  9992
2 07529 101.8032  81.5275 0008970 172.9449 299.0949 12.53140959 77845
NOAA 5 [-]              
1 09057U 76077A   20111.92290439 -.00000050  00000-0 -44688-4 0  9992
2 09057 101.9813  81.2020 0009992 153.6132 268.4733 12.37751786976292
TIROS N [P]             
1 11060U 78096A   20112.12383837  .00000023  00000-0  32311-4 0  9998
2 11060  98.7446 170.8585 0009629 243.3519 116.6671 14.18264360360243
NOAA 6 [P]              
1 11416U 79057A   20112.84318274  .00000037  00000-0  29387-4 0  9997
2 11416  98.6561 111.6887 0011407  62.2011 298.0328 14.33574201129023
NOAA 7 [-]              
1 12553U 81059A   20112.01319878 -.00000002  00000-0  22225-4 0  9992
2 12553  99.0868 131.3554 0011373 186.5460 173.5567 14.17273851  6475
NOAA 8 [-]              
1 13923U 83022A   20111.99101796 -.00000001  00000-0  17018-4 0  9993
2 13923  98.6159  97.9079 0015182 359.3160   0.7998 14.28699698930224
NOAA 9 [P]              
1 15427U 84123A   20112.85830720 -.00000009  00000-0  18292-4 0  9992
2 15427  98.9364  66.9577 0013907 236.4844 176.6168 14.16095075825515
NOAA 10 [-]             
1 16969U 86073A   20111.89209584  .00000003  00000-0  18342-4 0  9990
2 16969  98.5008 104.9255 0013364 102.3785 315.3782 14.28095247748428
NOAA 11 [-]             
1 19531U 88089A   20112.05352757 -.00000024  00000-0  87713-5 0  9990
2 19531  98.4178 134.6838 0010073 291.3605  68.6495 14.15253942629694
NOAA 12 [-]             
1 21263U 91032A   20112.75732912 -.00000009  00000-0  14202-4 0  9994
2 21263  98.5083 124.3585 0014691 119.0674 241.1980 14.25912268504875
NOAA 13 [-]             
1 22739U 93050A   20112.54334162  .00000009  00000-0  26885-4 0  9996
2 22739  98.4586 123.5220 0010695  80.1478 280.0903 14.12752459376186
NOAA 14 [-]             
1 23455U 94089A   20112.78092404 -.00000010  00000-0  16480-4 0  9994
2 23455  98.5499 166.7189 0010494  66.2206 294.0067 14.14143118305760
NOAA 15 [B]             
1 25338U 98030A   20112.10723233  .00000032  00000-0  31804-4 0  9993
2 25338  98.7224 137.4348 0011485  72.3923 287.8510 14.25959741141060
NOAA 16 [-]             
1 26536U 00055A   20112.77148351  .00000003  00000-0  24523-4 0  9997
2 26536  98.7366 183.1994 0009530 245.2037 114.8145 14.13249896  9738
NOAA 17 [-]             
1 27453U 02032A   20112.85371600 -.00000006  00000-0  15643-4 0  9994
2 27453  98.5793  60.6225 0012576  46.2102 314.0116 14.25063526926840
NOAA 18 [B]             
1 28654U 05018A   20112.77830713  .00000077  00000-0  66531-4 0  9990
2 28654  99.0496 168.6617 0014667  35.0453 325.1680 14.12504403769004
NOAA 19 [+]             
1 33591U 09005A   20112.84900618  .00000027  00000-0  39985-4 0  9994
2 33591  99.1968 116.7218 0013178 232.0118 127.9863 14.12403816577407
SUOMI NPP [+]           
1 37849U 11061A   20112.80160528  .00000006  00000-0  23824-4 0  9995
2 37849  98.7331  51.4951 0001469  78.8101 334.0531 14.19549284439589
NOAA 20 [+]             
1 43013U 17073A   20112.12223889 -.00000016  00000-0  12927-4 0  9993
2 43013  98.7142  50.9695 0001357 101.2439 258.8889 14.19551795125524
